ONEWEB-0456             
1 51646U 22012AA  24030.54737132  .00000499  00000+0  13943-2 0  9993
2 51646  87.8901 208.7967 0001716  82.2664 277.8658 13.10375794 95589
ONEWEB-0457             
1 51647U 22012AB  24030.52460333 -.00000525  00000+0 -15391-2 0  9999
2 51647  87.8909 208.8114 0001202 104.8284 255.2976 13.10374514 95584
ONEWEB-0458             
1 51648U 22012AC  24030.54574334  .00000435  00000+0  12090-2 0  9990
2 51648  87.8913 208.8212 0001619 100.8995 259.2314 13.10374490 95545
ONEWEB-0461             
1 51649U 22012AD  24030.44316545  .00000028  00000+0  38993-4 0  9998
2 51649  87.9227 178.6247 0001355 100.6100 259.5184 13.17648443 99484
ONEWEB-0463             
1 51650U 22012AE  24030.42576778  .00000104  00000+0  23372-3 0  9993
2 51650  87.9232 178.6687 0001414 102.4108 257.7181 13.17653017 99260
ONEWEB-0464             
1 51651U 22012AF  24030.54248396  .00000273  00000+0  74680-3 0  9994
2 51651  87.8914 208.8106 0001933  88.3832 271.7517 13.10375496 95564
ONEWEB-0468             
1 51652U 22012AG  24030.47262810  .00000506  00000+0  14122-2 0  9997
2 51652  87.8912 208.8171 0001585  93.2174 266.9135 13.10374413 95539
ONEWEB-0473             
1 51653U 22012AH  24030.53435173 -.00000160  00000+0 -49526-3 0  9994
2 51653  87.8911 208.8087 0001649  96.0182 264.1133 13.10375660 95540
